OBJECT_NAME,OBJECT_ID,EPOCH,MEAN_MOTION,ECCENTRICITY,INCLINATION,RA_OF_ASC_NODE,ARG_OF_PERICENTER,MEAN_ANOMALY,EPHEMERIS_TYPE,CLASSIFICATION_TYPE,NORAD_CAT_ID,ELEMENT_SET_NO,REV_AT_EPOCH,BSTAR,MEAN_MOTION_DOT,MEAN_MOTION_DDOT
TDRS 3,1988-091B,2026-07-23T05:54:29.582208,1.00278815,.00377733,12.5758,340.7613,355.3937,4.4747,0,U,19548,999,12574,0,-.298E-5,0
FLTSATCOM 8 (USA 46),1989-077A,2026-07-23T06:44:17.308032,1.00279309,.00021657,12.4113,350.9409,104.0277,72.7935,0,U,20253,999,26092,0,-.367E-5,0
SKYNET 4C,1990-079A,2026-07-23T06:48:46.876896,0.98580333,.00032407,13.3264,349.5853,132.6219,62.7656,0,U,20776,999,39,0,-.246E-5,0
TDRS 5,1991-054B,2026-07-23T03:37:55.536672,1.00277842,.0007233,14.0665,353.5098,254.7817,299.4676,0,U,21639,999,12807,0,.83E-6,0
TDRS 6,1993-003B,2026-07-23T05:55:29.485920,1.00276798,.0008816,14.1835,356.7857,186.7517,160.4644,0,U,22314,999,12276,0,-.297E-5,0
UFO 2 (USA 95),1993-056A,2026-07-23T02:51:15.012864,1.00274215,.00019052,11.9075,3.3500,358.8660,10.0673,0,U,22787,999,11891,0,.123E-5,0
UFO 4 (USA 108),1995-003A,2026-07-23T05:14:59.744256,1.00269774,.00029093,9.6824,12.9801,100.4296,78.6210,0,U,23467,999,11531,0,-.23E-6,0
TDRS 7,1995-035B,2026-07-22T22:00:32.568768,1.00271800,.00110737,13.3624,347.9389,88.0008,284.1209,0,U,23613,999,11361,0,-.242E-5,0
USA 115 (MILSTAR-1 2),1995-060A,2026-07-22T13:29:14.378208,1.00272247,.00064485,14.0853,3.4801,123.0387,286.0752,0,U,23712,999,3324,0,-.206E-5,0
INMARSAT 3-F1,1996-020A,2026-07-23T05:44:04.701120,0.99982704,.00047274,10.6737,46.2946,100.4375,107.0805,0,U,23839,999,11061,0,.86E-6,0
INMARSAT 3-F2,1996-053A,2026-07-22T23:50:19.273632,0.99987335,.00061734,9.9349,53.5641,63.4584,295.1062,0,U,24307,999,10927,0,-.342E-5,0
INMARSAT 3-F3,1996-070A,2026-07-23T06:10:13.075392,0.99997843,.00037025,10.3936,49.2990,91.4421,258.7846,0,U,24674,999,10826,0,-.22E-6,0
USA 134,1997-065A,2026-07-23T00:51:38.598624,1.00276962,.00024564,12.8260,21.4487,344.0924,195.8201,0,U,25019,999,3331,0,-.68E-6,0
INMARSAT 3-F5,1998-006B,2026-07-23T02:45:41.678208,1.00271024,.00046455,9.7712,52.8955,69.0098,166.4028,0,U,25153,999,10425,0,-.294E-5,0
ABS-6,1999-053A,2026-07-23T05:11:07.615968,1.00270147,.00032178,0.0693,264.2699,200.0258,73.4453,0,U,25924,999,9820,0,-.115E-5,0
UFO 10 (USA 146),1999-063A,2026-07-22T21:08:38.825952,1.00271463,.00019332,9.8533,27.0183,136.9846,70.8328,0,U,25967,999,9770,0,-.191E-5,0
ASIASTAR,2000-016A,2026-07-23T01:30:13.544928,1.00274362,.0004291,9.2107,57.7655,57.5218,313.0619,0,U,26107,999,9628,0,-.337E-5,0
USA 149 (DSP 20),2000-024A,2026-07-23T03:38:47.953824,1.00263045,.00001506,13.1974,11.5908,240.6322,298.4044,0,U,26356,999,3327,0,.91E-6,0
TDRS 8,2000-034A,2026-07-23T01:24:36.584064,1.00270848,.00034512,12.7386,31.0107,42.6979,333.0688,0,U,26388,999,9554,0,-.2E-5,0
NSS-11,2000-059A,2026-07-23T05:41:06.101952,1.00272277,.00030855,2.2170,80.9630,38.2721,83.0057,0,U,26554,999,4165,0,.27E-6,0
USA 153,2000-065A,2026-07-22T22:13:31.324800,1.00271589,.0002159,11.6845,35.1176,60.7517,312.6560,0,U,26575,999,3329,0,-.329E-5,0
AMC-6,2000-067A,2026-07-23T06:40:40.469088,1.00271701,.0004172,0.2416,83.8922,48.1670,134.0635,0,U,26580,999,9425,0,.93E-6,0
USA 157 (MILSTAR-2 2),2001-009A,2026-07-23T03:04:34.961952,1.00278905,.00406192,11.5817,19.5352,178.9752,358.5372,0,U,26715,999,3330,0,.106E-5,0
INTELSAT 902 (IS-902),2001-039A,2026-07-23T01:57:38.530080,1.00272197,.00042651,6.2041,71.3386,50.8048,157.9936,0,U,26900,999,9105,0,-.284E-5,0
USA 164 (MILSTAR-2 3),2002-001A,2026-07-22T16:32:39.937632,1.00270369,.00992943,11.2216,21.6856,9.3175,176.5324,0,U,27168,999,3331,0,.94E-6,0
INTELSAT 904 (IS-904),2002-007A,2026-07-23T01:41:38.899104,1.00273562,.00052329,7.0068,68.7492,29.7760,196.2260,0,U,27380,999,5212,0,-.227E-5,0
DIRECTV 5 (TEMPO 1),2002-023A,2026-07-23T06:46:42.372768,1.00272258,.00032265,4.9672,74.8569,45.0735,172.6515,0,U,27426,999,8848,0,-.57E-6,0
INTELSAT 905 (IS-905),2002-027A,2026-07-23T06:41:44.647872,1.00273017,.00036067,6.8414,69.3598,51.5550,143.3283,0,U,27438,999,5172,0,.92E-6,0
GALAXY 3C (G-3C),2002-030A,2026-07-23T07:40:47.377920,1.00271479,.00018661,3.8250,77.5112,29.6482,214.2448,0,U,27445,999,4685,0,-.152E-5,0
INTELSAT 906 (IS-906),2002-041A,2026-07-23T03:01:29.031744,1.00271514,.00034037,5.8901,72.4726,32.5508,305.3618,0,U,27513,999,8738,0,.12E-6,0
NIMIQ 2,2002-062A,2026-07-22T15:56:05.944416,1.00272687,.00055303,9.5254,56.5190,59.8001,313.8976,0,U,27632,999,4454,0,-.73E-6,0
