TDRS 3                  
1 19548U 88091B   26204.24617572 -.00000298  00000+0  00000+0 0  9999
2 19548  12.5758 340.7613 0037773 355.3937   4.4747  1.00278815125740
FLTSATCOM 8 (USA 46)    
1 20253U 89077A   26204.28075588 -.00000367  00000+0  00000+0 0  9995
2 20253  12.4113 350.9409 0002165 104.0277  72.7935  1.00279309260924
SKYNET 4C               
1 20776U 90079A   26204.28387589 -.00000246  00000+0  00000+0 0  9992
2 20776  13.3264 349.5853 0003240 132.6219  62.7656  0.98580333   396
TDRS 5                  
1 21639U 91054B   26204.15133723  .00000083  00000+0  00000+0 0  9998
2 21639  14.0665 353.5098 0007233 254.7817 299.4676  1.00277842128079
TDRS 6                  
1 22314U 93003B   26204.24686905 -.00000297  00000+0  00000+0 0  9998
2 22314  14.1835 356.7857 0008816 186.7517 160.4644  1.00276798122768
UFO 2 (USA 95)          
1 22787U 93056A   26204.11892376  .00000123  00000+0  00000+0 0  9994
2 22787  11.9075   3.3500 0001905 358.8660  10.0673  1.00274215118912
UFO 4 (USA 108)         
1 23467U 95003A   26204.21874704 -.00000023  00000+0  00000+0 0  9990
2 23467   9.6824  12.9801 0002909 100.4296  78.6210  1.00269774115317
TDRS 7                  
1 23613U 95035B   26203.91704362 -.00000242  00000+0  00000+0 0  9999
2 23613  13.3624 347.9389 0011073  88.0008 284.1209  1.00271800113612
USA 115 (MILSTAR-1 2)   
1 23712U 95060A   26203.56197197 -.00000206  00000+0  00000+0 0  9990
2 23712  14.0853   3.4801 0006448 123.0387 286.0752  1.00272247 33247
INMARSAT 3-F1           
1 23839U 96020A   26204.23894330  .00000086  00000+0  00000+0 0  9990
2 23839  10.6737  46.2946 0004727 100.4375 107.0805  0.99982704110610
INMARSAT 3-F2           
1 24307U 96053A   26203.99327863 -.00000342  00000+0  00000+0 0  9997
2 24307   9.9349  53.5641 0006173  63.4584 295.1062  0.99987335109270
INMARSAT 3-F3           
1 24674U 96070A   26204.25709578 -.00000022  00000+0  00000+0 0  9995
2 24674  10.3936  49.2990 0003702  91.4421 258.7846  0.99997843108268
USA 134                 
1 25019U 97065A   26204.03586341 -.00000068  00000+0  00000+0 0  9991
2 25019  12.8260  21.4487 0002456 344.0924 195.8201  1.00276962 33316
INMARSAT 3-F5           
1 25153U 98006B   26204.11506572 -.00000294  00000+0  00000+0 0  9994
2 25153   9.7712  52.8955 0004645  69.0098 166.4028  1.00271024104255
ABS-6                   
1 25924U 99053A   26204.21606037 -.00000115  00000+0  00000+0 0  9993
2 25924   0.0693 264.2699 0003217 200.0258  73.4453  1.00270147 98207
UFO 10 (USA 146)        
1 25967U 99063A   26203.88100493 -.00000191  00000+0  00000+0 0  9992
2 25967   9.8533  27.0183 0001933 136.9846  70.8328  1.00271463 97708
ASIASTAR                
1 26107U 00016A   26204.06265677 -.00000337  00000+0  00000+0 0  9998
2 26107   9.2107  57.7655 0004291  57.5218 313.0619  1.00274362 96289
USA 149 (DSP 20)        
1 26356U 00024A   26204.15194391  .00000091  00000+0  00000+0 0  9993
2 26356  13.1974  11.5908 0000150 240.6322 298.4044  1.00263045 33275
TDRS 8                  
1 26388U 00034A   26204.05875676 -.00000200  00000+0  00000+0 0  9993
2 26388  12.7386  31.0107 0003451  42.6979 333.0688  1.00270848 95542
NSS-11                  
1 26554U 00059A   26204.23687618  .00000027  00000+0  00000+0 0  9998
2 26554   2.2170  80.9630 0003085  38.2721  83.0057  1.00272277 41658
USA 153                 
1 26575U 00065A   26203.92605700 -.00000329  00000+0  00000+0 0  9991
2 26575  11.6845  35.1176 0002159  60.7517 312.6560  1.00271589 33291
AMC-6                   
1 26580U 00067A   26204.27824617  .00000093  00000+0  00000+0 0  9995
2 26580   0.2416  83.8922 0004172  48.1670 134.0635  1.00271701 94259
USA 157 (MILSTAR-2 2)   
1 26715U 01009A   26204.12818243  .00000106  00000+0  00000+0 0  9999
2 26715  11.5817  19.5352 0040619 178.9752 358.5372  1.00278905 33304
INTELSAT 902 (IS-902)   
1 26900U 01039A   26204.08169595 -.00000284  00000+0  00000+0 0  9990
2 26900   6.2041  71.3386 0004265  50.8048 157.9936  1.00272197 91056
USA 164 (MILSTAR-2 3)   
1 27168U 02001A   26203.68935113  .00000094  00000+0  00000+0 0  9997
2 27168  11.2216  21.6856 0099294   9.3175 176.5324  1.00270369 33311
INTELSAT 904 (IS-904)   
1 27380U 02007A   26204.07058911 -.00000227  00000+0  00000+0 0  9994
2 27380   7.0068  68.7492 0005232  29.7760 196.2260  1.00273562 52124
DIRECTV 5 (TEMPO 1)     
1 27426U 02023A   26204.28243487 -.00000057  00000+0  00000+0 0  9991
2 27426   4.9672  74.8569 0003226  45.0735 172.6515  1.00272258 88489
INTELSAT 905 (IS-905)   
1 27438U 02027A   26204.27898898  .00000092  00000+0  00000+0 0  9997
2 27438   6.8414  69.3598 0003606  51.5550 143.3283  1.00273017 51725
GALAXY 3C (G-3C)        
1 27445U 02030A   26204.31999280 -.00000152  00000+0  00000+0 0  9999
2 27445   3.8250  77.5112 0001866  29.6482 214.2448  1.00271479 46856
INTELSAT 906 (IS-906)   
1 27513U 02041A   26204.12603046  .00000012  00000+0  00000+0 0  9992
2 27513   5.8901  72.4726 0003403  32.5508 305.3618  1.00271514 87387
NIMIQ 2                 
1 27632U 02062A   26203.66395769 -.00000073  00000+0  00000+0 0  9993
2 27632   9.5254  56.5190 0005530  59.8001 313.8976  1.00272687 44546
